0 THORAD AGENA D DEB
1 04648U 70025AG  13282.34751052  .00017079  00000-0  13556-2 0  4529
2 04648 099.7763 147.6716 0054975 060.8954 299.7751 14.99406264282815
0 THORAD AGENA D DEB
1 04648U 70025AG  13282.88136362  .00014479  00000-0  11505-2 0  4533
2 04648 099.7764 148.3408 0054938 059.2504 301.4107 14.99416362282898
0 THORAD AGENA D DEB
1 04648U 70025AG  13285.88421045  .00012116  00000-0  96301-3 0  4557
2 04648 099.7764 152.1046 0054645 049.9161 310.6827 14.99480482283345
0 THORAD AGENA D DEB
1 04648U 70025AG  13287.88603840  .00020914  00000-0  16532-2 0  4567
2 04648 099.7759 154.6132 0054528 043.7481 316.8036 14.99523658283645
0 THORAD AGENA D DEB
1 04648U 70025AG  13289.35399522  .00016791  00000-0  13281-2 0  4577
2 04648 099.7753 156.4534 0054362 039.1704 321.3428 14.99570486283869
0 THORAD AGENA D DEB
1 04648U 70025AG  13291.15552630  .00014463  00000-0  11442-2 0  4581
2 04648 099.7742 158.7115 0054155 033.5505 326.9122 14.99619117284132
0 THORAD AGENA D DEB
1 04648U 70025AG  13293.35732027  .00015124  00000-0  11947-2 0  4591
2 04648 099.7734 161.4716 0053947 026.7140 333.6837 14.99669550284468
0 THORAD AGENA D DEB
1 04648U 70025AG  13295.55903691  .00017075  00000-0  13461-2 0  4604
2 04648 099.7733 164.2320 0053693 019.8274 340.5013 14.99722328284790
